#cP2022 10 27  0  0  0.00000000      96 ORBIT IGb14 HLM  IGS
## 2233 345600.00000000   900.00000000 59879 0.0000000000000
+   31   G01G02G03G04G05G06G07G08G09G10G11G12G13G14G15G16G17
+        G18G19G20G21G22G23G24G25G26G27G29G30G31G32  0  0  0
+          0  0  0  0  0  0  0  0  0  0  0  0  0  0  0  0  0
+          0  0  0  0  0  0  0  0  0  0  0  0  0  0  0  0  0
+          0  0  0  0  0  0  0  0  0  0  0  0  0  0  0  0  0
++         3  2  2  2  2  3  2  2  2  2  3  2  2  3  2  2  2
++         3  2  2  2  2  2  2  2  2  2  2  3  2  2  0  0  0
++         0  0  0  0  0  0  0  0  0  0  0  0  0  0  0  0  0
++         0  0  0  0  0  0  0  0  0  0  0  0  0  0  0  0  0
++         0  0  0  0  0  0  0  0  0  0  0  0  0  0  0  0  0
%c G  cc GPS ccc cccc cccc cccc cccc ccccc ccccc ccccc ccccc
%c cc cc ccc ccc cccc cccc cccc cccc ccccc ccccc ccccc ccccc
%f  1.2500000  1.025000000  0.00000000000  0.000000000000000
%f  0.0000000  0.000000000  0.00000000000  0.000000000000000
%i    0    0    0    0      0      0      0      0         0
%i    0    0    0    0      0      0      0      0         0
/* RAPID ORBIT COMBINATION FROM WEIGHTED AVERAGE OF:        
/* cod emr esa gfz jpl ngs sio usn whu                      
/* REFERENCED TO IGS TIME (IGST) AND TO WEIGHTED MEAN POLE: 
/* PCV:IGS14_2223 OL/AL:FES2004  NONE     Y  ORB:CMB CLK:CMB
*  2022 10 27 18  0  0.00000000
PG01 -14163.538820   2869.935282  21976.091278    260.834791  5  6  7  89       
PG02  14199.340826  -4146.637302 -21438.471020   -640.550955  7  7  6 121       
PG03 -21698.023158   9468.788979  11811.506725   -368.570353  6  5  6  96       
PG04 -23743.809073    801.998118 -11980.654833    -96.604808  5  5  6 107       
PG05  17785.067607   1544.196455 -19876.886852   -102.029458  6  5  4 112       
PG06   6288.840684  25753.707358   -572.105566    502.948931  4  7  8  57       
PG07  -7926.534715  18477.133652 -16678.982502    294.258497  7  3  4 109       
PG08 -26057.962350  -5771.601494   1908.333914    -90.948942  4  6  5  96       
PG09 -15331.646407   9969.163676 -19357.340315   -277.291672  5  4  5 117       
PG10   6961.189335 -20671.066459  15086.286105     -9.345178  2  4  6  90       
PG11  12028.365104  20561.618034 -11782.368493    -31.186738  8 11  6 114       
PG12  22288.960979  -7654.650346  11880.673980   -297.257229  5  5  6  90       
PG13  22567.377300  13569.553004  -4342.841774    413.860327  6  8  5 111       
PG14  -9480.399121  20916.704840  13254.063226    -90.426292  8 12  7  99       
PG15  26466.654060   3079.524296   1508.637759    -17.384646  3  3  6 104       
PG16 -13775.866627  -8074.026615 -21572.430955   -526.679796  7  7  6 122       
PG17  -1378.771380  15369.333867  22052.688905    672.668918  4  7  5 105       
PG18   6879.002593 -19934.996128 -16062.367172     -0.429775  4 10  8  95       
PG19  10610.575388  17113.619687  17218.550361    229.454493  4  8  6  99       
PG20   8613.166225  13755.923891 -21044.742347    474.920936  6  4  1 108       
PG21 -16961.901112  -6443.556319  20244.034582    157.238397  4  6  3  83       
PG22 -13049.009959 -17160.200519  16051.414847    353.512802  3  8  4 117       
PG23  15502.030393 -20768.172535   5467.359538     -1.152882  7 10  5  92       
PG24  16381.304909   1110.873791  20612.636632     83.242448  2  4  1  90       
PG25  20078.086621 -16942.823491   2389.271606    386.695429  5  6  6 101       
PG26  -5374.895748 -16191.832739 -20372.041441    233.915863  7  5  6 125       
PG27 -21586.682216 -13012.900868  -9209.639463    190.344484  7  7  6 104       
PG29  17214.747055  -7078.107605 -19020.889856   -562.883432  7  8  5 132       
PG30   -111.426491  25284.149300  -7607.109572   -537.108796 10 11 10  79       
PG31  -6947.136352 -25290.431521  -2182.837207   -198.241112  3 10  2  86       
PG32  -2911.287700 -16222.649152  21014.517977   -276.897278  4  6  5 107       
*  2022 10 27 18 15  0.00000000
PG01 -14796.167877    387.026871  21774.892223    260.829403  4  6  8  92       
PG02  15039.795753  -1713.863430 -21188.154890   -640.549422  7  7  5 120       
PG03 -20766.294166   8274.188467  14139.975244   -368.573330  6  5  6 113       
PG04 -24855.922612    243.374750  -9501.304109    -96.599093  5  5  5 121       
PG05  16300.900872   3296.790843 -20907.575171   -102.030812  6  5  4 109       
PG06   6089.331228  25709.052784   2340.086850    502.958110  3  8  8 106       
PG07  -8658.640066  16501.713844 -18312.327097    294.254848  7  3  4 116       
PG08 -26063.684513  -6005.251866   -926.322906    -90.950791  5  6  5 112       
PG09 -17357.350684   9338.107997 -17904.865366   -277.286820  5  4  5 124       
PG10   8201.778571 -21671.052686  12845.010348     -9.346619  2  3  5  89       
PG11  12074.294370  21783.210944  -9277.972084    -31.191265  9 11  6 111       
PG12  21267.843186  -6493.515202  14180.005840   -297.261065  5  5  5  98       
PG13  21904.739709  13519.220007  -7104.298792    413.866494  6  8  5 114       
PG14 -10657.104945  21688.980910  10899.240860    -90.422356  8 12  6 104       
PG15  26486.937303   3403.184055  -1269.461692    -17.382059  3  5  6 104       
PG16 -11929.684783  -9647.819701 -21986.664552   -526.679656  8  7  6 124       
PG17  -3698.815762  14618.028380  22306.007521    672.672202  3  6  5 109       
PG18   7494.418270 -18084.803431 -17886.441828     -0.442060  5  8  8 107       
PG19   8614.516139  16470.681496  18837.903396    229.458995  3  8  6 105       
PG20   7178.766807  15640.790254 -20272.974599    474.918448  6  5    103       
PG21 -17612.646081  -8444.978875  18932.534007    157.237202  4  5  2  84       
PG22 -11247.347226 -16669.114841  17862.085817    353.519123  3  8  4 117       
PG23  15991.000646 -20948.113670   2633.752504     -1.152965  7 10  6  84       
PG24  17114.695583   3376.941170  19804.795698     83.228877  2  5  3  99       
PG25  19958.070003 -16402.207259   5205.668739    386.698784  5  6  6  92       
PG26  -3776.001696 -17808.596274 -19321.528816    233.917039  7  6  6 126       
PG27 -20426.317541 -12883.294191 -11717.558200    190.337934  7  7  6 115       
PG29  19133.285422  -6295.465338 -17396.886312   -562.885947  7  8  6 128       
PG30   -676.140004  24356.468649 -10169.481607   -537.108723 10 10 10 101       
PG31  -6665.447557 -25432.636860    687.426823   -198.242295  4 10  2  80       
PG32   -569.837248 -15670.773067  21605.449618   -276.908258  4  6  6 107       
*  2022 10 27 18 30  0.00000000
PG01 -15551.520927  -2009.867997  21189.099905    260.824024  4  6  8  96       
PG02  15983.692398    625.584787 -20551.035890   -640.547991  6  7  5 119       
PG03 -19734.291222   6841.786380  16222.072423   -368.576387  6  5  5 110       
PG04 -25714.224220   -188.869917  -6859.357990    -96.593355  5  4  6 111       
PG05  14851.196859   5200.572590 -21584.724175   -102.032210  6  5  4 109       
PG06   5784.982516  25363.258166   5211.846004    502.967394  3  9  7 104       
PG07  -9538.956090  14404.602854 -19614.667814    294.251197  7  5  4 116       
PG08 -25769.481307  -6182.536464  -3745.396611    -90.952510  5  6  6 115       
PG09 -19234.893712   8844.101241 -16146.626621   -277.281994  5  4  4 125       
PG10   9212.664930 -22536.001543  10381.017328     -9.347698  2  2  5  93       
PG11  12106.290378  22718.774551  -6614.206466    -31.195793  9 12  6 100       
PG12  20131.564146  -5104.263884  16230.086540   -297.265170  4  4  5 101       
PG13  20953.984537  13403.837232  -9745.440300    413.872642  6  8  5 114       
PG14 -11602.862549  22318.206951   8355.778342    -90.418414  8 12  6 111       
PG15  26214.400310   3700.584085  -4026.175843    -17.379204  3  6  6 103       
PG16 -10149.660553 -11339.821596 -22033.056496   -526.679945  8  6  6 121       
PG17  -6063.880689  13995.766244  22190.847535    672.675104  3  6  5 114       
PG18   8265.008607 -16090.395340 -19401.227103     -0.454297  5  7  9 110       
PG19   6424.884065  15886.844567  20129.558930    229.463603  2  7  6 117       
PG20   5898.274629  17502.904972 -19153.626012    474.915392  6  6    102       
PG21 -18307.410514 -10258.852552  17317.708332    157.237219  4  5  1  92       
PG22  -9245.843416 -16223.114659  19376.739078    353.525515  4  8  4 122       
PG23  16261.924867 -20904.063684   -245.573321     -1.152979  7 10  6  75       
PG24  17909.533027   5497.847512  18649.619634     83.215299  2  6  4 100       
PG25  19659.051900 -15615.260399   7930.312792    386.702164  6  6  6 102       
PG26  -2338.689974 -19394.226128 -17938.042702    233.918213  7  6  6 126       
PG27 -18996.471824 -12764.271675 -14030.095289    190.331369  7  6  6 109       
PG29  20898.782047  -5674.238495 -15475.355416   -562.888313  7  8  6 126       
PG30  -1369.602351  23189.032581 -12553.689898   -537.108709 10  8 11  82       
PG31  -6293.192284 -25275.878203   3545.488818   -198.243895  4 10  4  91       
PG32   1843.862411 -15232.969117  21830.262286   -276.919241  4  6  6 111       
EOF
